STARLINK-36380          
1 68344U 26059Z   26090.66668981 -.01978563  00000+0 -10483-1 0  9991
2 68344  53.1592 252.5705 0000761  67.0637 229.5322 15.82936644  2578
STARLINK-37214          
1 68345U 26059AA  26090.66668981 -.01977767  00000+0 -10059-1 0  9996
2 68345  53.1593 252.5383 0000591  65.4106 246.4881 15.83790224  2577
STARLINK-37169          
1 68346U 26059AB  26090.66668981 -.01968431  00000+0 -99069-2 0  9994
2 68346  53.1592 252.5304 0000643  75.5653 240.0732 15.83992471  2570
STARLINK-37136          
1 68347U 26059AC  26090.66668981 -.01966979  00000+0 -98087-2 0  9999
2 68347  53.1593 252.5226 0000681  79.0676 240.3322 15.84180643  2570
STARLINK-37182          
1 68348U 26059AD  26090.66668981 -.01995570  00000+0 -10274-1 0  9990
2 68348  53.1593 252.5461 0000770  69.8164 238.3665 15.83565641  2571
STARLINK-37183          
1 68349U 26059AE  26090.66668981 -.01963803  00000+0 -96985-2 0  9999
2 68349  53.1593 252.5151 0000776  74.3099 248.7937 15.84374138  2579
CENTISPACE-1 OBJECT A   
1 68350U 26060A   26090.92174954  .00002073  00000+0  33708-3 0  9999
2 68350  54.9828 350.9279 0013011 316.4493  43.5478 14.74887229  1375
CENTISPACE-1 OBJECT B   
1 68351U 26060B   26091.19262269  .00001468  00000+0  24760-3 0  9992
2 68351  54.9828 349.8209 0013266 317.6475  42.3499 14.74925534  1418
CENTISPACE-1 OBJECT C   
1 68352U 26060C   26091.19146015  .00000080  00000+0  42632-4 0  9991
2 68352  54.9800 349.8159 0012518 323.3351  36.6791 14.75102115  1413
CENTISPACE-1 OBJECT D   
1 68353U 26060D   26090.51361463  .00000086  00000+0  43489-4 0  9990
2 68353  54.9893 352.5746 0013212 325.1986  34.8148 14.75128916  1317
CENTISPACE-1 OBJECT E   
1 68354U 26060E   26091.19082037  .00000090  00000+0  44032-4 0  9993
2 68354  54.9774 349.8073 0013417 324.6040  35.4067 14.75202797  1418
CENTISPACE-1 OBJECT F   
1 68355U 26060F   26091.12284613  .00000082  00000+0  42887-4 0  9998
2 68355  54.9763 350.0809 0013873 322.7746  37.2291 14.75237828  1407
